[{"OBJECT_NAME":"STARLINK-35001","OBJECT_ID":"2025-184H","EPOCH":"2026-03-09T16:49:00.914592","MEAN_MOTION":15.05647396,"ECCENTRICITY":7.678e-5,"INCLINATION":97.6036,"RA_OF_ASC_NODE":122.6897,"ARG_OF_PERICENTER":108.4244,"MEAN_ANOMALY":251.7066,"EPHEMERIS_TYPE":0,"CLASSIFICATION_TYPE":"U","NORAD_CAT_ID":65280,"ELEMENT_SET_NO":999,"REV_AT_EPOCH":3130,"BSTAR":0.00010110195,"MEAN_MOTION_DOT":1.398e-5,"MEAN_MOTION_DDOT":0},{"OBJECT_NAME":"ICON","OBJECT_ID":"2019-068A","EPOCH":"2026-03-09T22:35:01.599072","MEAN_MOTION":15.06276737,"ECCENTRICITY":0.00134076,"INCLINATION":26.9847,"RA_OF_ASC_NODE":325.9297,"ARG_OF_PERICENTER":187.0145,"MEAN_ANOMALY":173.0229,"EPHEMERIS_TYPE":0,"CLASSIFICATION_TYPE":"U","NORAD_CAT_ID":44628,"ELEMENT_SET_NO":999,"REV_AT_EPOCH":35105,"BSTAR":0.00030799545,"MEAN_MOTION_DOT":4.879e-5,"MEAN_MOTION_DDOT":0}]
